NORAD_CAT_ID,OBJECT_NAME,OBJECT_TYPE,EPOCH,MEAN_MOTION,ECCENTRICITY,INCLINATION,RA_OF_ASC_NODE,ARG_OF_PERICENTER,MEAN_ANOMALY,BSTAR,MEAN_MOTION_DOT,MEAN_MOTION_DDOT,TLE_LINE0,TLE_LINE1,TLE_LINE2,SEMIMAJOR_AXIS,PERIOD,APOGEE,PERIGEE,DECAYED
50834.0,STARLINK-3331,PAYLOAD,2022-07-26 10:01:11,15.08853496,0.0001460999999999,53.2166,355.0442,71.2461,288.869,0.00059023,9.121e-05,0.0,0 STARLINK-3331,1 50834U 22001AH  22207.41749401  .00009121  00000-0  59023-3 0  9993,2 50834  53.2166 355.0442 0001461  71.2461 288.8690 15.08853496 30644,6917.839,95.437,540.715,538.693,0.0
50834.0,STARLINK-3331,PAYLOAD,2022-07-26 19:33:30,15.08855826,0.0001471,53.2167,353.2599,70.4132,289.7019,0.00054835,8.454e-05,0.0,0 STARLINK-3331,1 50834U 22001AH  22207.81493126  .00008454  00000-0  54835-3 0  9991,2 50834  53.2167 353.2599 0001471  70.4132 289.7019 15.08855826 30706,6917.831999999999,95.437,540.715,538.679,0.0
50834.0,STARLINK-3331,PAYLOAD,2022-07-27 13:02:44,15.08851186,0.0001463,53.217,349.9886,70.7372,289.3778,0.00017855,2.556e-05,0.0,0 STARLINK-3331,1 50834U 22001AH  22208.54356679  .00002556  00000-0  17855-3 0  9991,2 50834  53.2170 349.9886 0001463  70.7372 289.3778 15.08851186 32098,6917.846,95.437,540.7230000000002,538.6990000000002,0.0
50834.0,STARLINK-3331,PAYLOAD,2022-07-27 16:13:30,15.08849976,0.0001460999999999,53.2171,349.3937,71.8046,288.3105,0.00012136,1.645e-05,0.0,0 STARLINK-3331,1 50834U 22001AH  22208.67604604  .00001645  00000-0  12136-3 0  9994,2 50834  53.2171 349.3937 0001461  71.8046 288.3105 15.08849976 30835,6917.85,95.437,540.726,538.7040000000002,0.0
50834.0,STARLINK-3331,PAYLOAD,2022-07-27 20:59:39,15.08849521,0.0001421,53.217,348.5016,70.7796,289.335,0.0001154,1.55e-05,0.0,0 STARLINK-3331,1 50834U 22001AH  22208.87476523  .00001550  00000-0  11540-3 0  9996,2 50834  53.2170 348.5016 0001421  70.7796 289.3350 15.08849521 30861,6917.851,95.437,540.6990000000002,538.7330000000002,0.0
50834.0,STARLINK-3331,PAYLOAD,2022-07-28 20:50:27,15.08832679,0.0001422,53.2174,344.0408,70.3589,289.7557,-0.00018589,-3.245e-05,0.0,0 STARLINK-3331,1 50834U 22001AH  22209.86837061 -.00003245  00000-0 -18589-3 0  9999,2 50834  53.2174 344.0408 0001422  70.3589 289.7557 15.08832679 32296,6917.903,95.438,540.751,538.784,0.0
50834.0,STARLINK-3331,PAYLOAD,2022-07-29 04:47:24,15.08808909,0.0001163,53.2178,342.5548,89.2644,270.8482,0.00052896,8.133e-05,0.0,0 STARLINK-3331,1 50834U 22001AH  22210.19958361  .00008133  00000-0  52896-3 0  9992,2 50834  53.2178 342.5548 0001163  89.2644 270.8482 15.08808909 32344,6917.975,95.44,540.645,539.036,0.0
50834.0,STARLINK-3331,PAYLOAD,2022-07-29 11:08:55,15.08840294,0.0001329,53.2176,341.3655,71.365,288.7487,6.3599e-05,7.24e-06,0.0,0 STARLINK-3331,1 50834U 22001AH  22210.46452909  .00000724  00000-0  63599-4 0  9990,2 50834  53.2176 341.3655 0001329  71.3650 288.7487 15.08840294 31100,6917.879,95.438,540.664,538.825,0.0
50834.0,STARLINK-3331,PAYLOAD,2022-07-29 19:05:50,15.08842715,0.0001349,53.2177,339.879,71.6587,288.4552,7.646399999999999e-05,9.29e-06,0.0,0 STARLINK-3331,1 50834U 22001AH  22210.79572702  .00000929  00000-0  76464-4 0  9992,2 50834  53.2177 339.8790 0001349  71.6587 288.4552 15.08842715 31152,6917.871999999999,95.437,540.67,538.804,0.0
50834.0,STARLINK-3331,PAYLOAD,2022-07-30 10:59:43,15.08830359,0.0001422,53.2176,336.9052,71.1998,288.9149,1.4105e-05,-6.3e-07,0.0,0 STARLINK-3331,1 50834U 22001AH  22211.45813984 -.00000063  00000-0  14105-4 0  9990,2 50834  53.2176 336.9052 0001422  71.1998 288.9149 15.08830359 32534,6917.91,95.438,540.759,538.7909999999998,0.0
50834.0,STARLINK-3331,PAYLOAD,2022-07-30 12:35:06,15.088312,0.0001415,53.2176,336.6078,72.5849,287.5298,2.3036e-05,7.9e-07,0.0,0 STARLINK-3331,1 50834U 22001AH  22211.52437945  .00000079  00000-0  23036-4 0  9996,2 50834  53.2176 336.6078 0001415  72.5849 287.5298 15.08831200 31266,6917.906999999997,95.438,540.751,538.793,0.0
50834.0,STARLINK-3331,PAYLOAD,2022-07-30 22:07:25,15.08833457,0.0001414,53.2175,334.8236,72.7936,287.3211,4.9879e-05,5.06e-06,0.0,0 STARLINK-3331,1 50834U 22001AH  22211.92181992  .00000506  00000-0  49879-4 0  9996,2 50834  53.2175 334.8236 0001414  72.7936 287.3211 15.08833457 31325,6917.9,95.438,540.744,538.7869999999998,0.0
50834.0,STARLINK-3331,PAYLOAD,2022-07-31 10:50:30,15.08836877,0.0001467,53.217,332.4448,72.1059,288.0093,5.1153e-05,5.26e-06,0.0,0 STARLINK-3331,1 50834U 22001AH  22212.45173721  .00000526  00000-0  51153-4 0  9996,2 50834  53.2170 332.4448 0001467  72.1059 288.0093 15.08836877 32682,6917.89,95.438,540.77,538.74,0.0
50834.0,STARLINK-3331,PAYLOAD,2022-07-31 12:25:53,15.08837436,0.0001462,53.2169,332.1473,72.574,287.5412,5.9932e-05,6.66e-06,0.0,0 STARLINK-3331,1 50834U 22001AH  22212.51797719  .00000666  00000-0  59932-4 0  9990,2 50834  53.2169 332.1473 0001462  72.5740 287.5412 15.08837436 31412,6917.888000000001,95.438,540.765,538.742,0.0
50834.0,STARLINK-3331,PAYLOAD,2022-07-31 20:22:48,15.08841324,0.0001469,53.2169,330.6606,72.1859,287.9293,0.00011844,1.598e-05,0.0,0 STARLINK-3331,1 50834U 22001AH  22212.84917671  .00001598  00000-0  11844-3 0  9991,2 50834  53.2169 330.6606 0001469  72.1859 287.9293 15.08841324 31464,6917.876,95.437,540.758,538.725,0.0
50834.0,STARLINK-3331,PAYLOAD,2022-08-01 02:44:20,15.08848699,0.0001409999999999,53.2169,329.4711,74.5571,285.5577,-9.888e-05,-1.862e-05,0.0,0 STARLINK-3331,1 50834U 22001AH  22213.11413156 -.00001862  00000-0 -98880-4 0  9993,2 50834  53.2169 329.4711 0001410  74.5571 285.5577 15.08848699 32787,6917.854,95.437,540.694,538.743,0.0
50834.0,STARLINK-3331,PAYLOAD,2022-08-01 13:52:03,15.0884541,0.0001489,53.2165,327.3897,73.4412,286.6744,0.0003233,4.862e-05,0.0,0 STARLINK-3331,1 50834U 22001AH  22213.57781732  .00004862  00000-0  32330-3 0  9999,2 50834  53.2165 327.3897 0001489  73.4412 286.6744 15.08845410 32857,6917.864000000001,95.437,540.759,538.6990000000002,0.0
50834.0,STARLINK-3331,PAYLOAD,2022-08-01 21:48:58,15.08850101,0.000148,53.2164,325.9029,73.1448,286.9707,0.00035535,5.373e-05,0.0,0 STARLINK-3331,1 50834U 22001AH  22213.90901526  .00005373  00000-0  35535-3 0  9999,2 50834  53.2164 325.9029 0001480  73.1448 286.9707 15.08850101 31623,6917.85,95.437,540.738,538.691,0.0
50834.0,STARLINK-3331,PAYLOAD,2022-08-02 13:42:50,15.08840332,0.0001435,53.2163,322.9291,73.3373,286.7777,6.289e-05,7.13e-06,0.0,0 STARLINK-3331,1 50834U 22001AH  22214.57141688  .00000713  00000-0  62890-4 0  9996,2 50834  53.2163 322.9291 0001435  73.3373 286.7777 15.08840332 33003,6917.879,95.438,540.737,538.752,0.0
50834.0,STARLINK-3331,PAYLOAD,2022-08-02 18:28:59,15.08839154,0.0001422,53.2165,322.0371,73.1228,286.992,4.8892e-05,4.9000000000000005e-06,0.0,0 STARLINK-3331,1 50834U 22001AH  22214.77013782  .00000490  00000-0  48892-4 0  9999,2 50834  53.2165 322.0371 0001422  73.1228 286.9920 15.08839154 31750,6917.8830000000025,95.438,540.732,538.764,0.0
50834.0,STARLINK-3331,PAYLOAD,2022-08-03 11:58:13,15.08845663,0.000136,53.2172,318.7657,73.2603,286.8538,6.5628e-05,7.57e-06,0.0,0 STARLINK-3331,1 50834U 22001AH  22215.49877230  .00000757  00000-0  65628-4 0  9997,2 50834  53.2172 318.7657 0001360  73.2603 286.8538 15.08845663 31864,6917.863,95.437,540.669,538.7869999999998,0.0
50834.0,STARLINK-3331,PAYLOAD,2022-08-03 19:55:09,15.08848554,0.0001353,53.2172,317.2791,71.736,288.3779,5.9839e-05,6.65e-06,0.0,0 STARLINK-3331,1 50834U 22001AH  22215.82996888  .00000665  00000-0  59839-4 0  9990,2 50834  53.2172 317.2791 0001353  71.7360 288.3779 15.08848554 31914,6917.854,95.437,540.655,538.783,0.0
50834.0,STARLINK-3331,PAYLOAD,2022-08-04 11:49:01,15.08839847,0.0001388,53.2171,314.3057,71.6499,288.4644,-4.7114e-05,-1.038e-05,0.0,0 STARLINK-3331,1 50834U 22001AH  22216.49237462 -.00001038  00000-0 -47114-4 0  9990,2 50834  53.2171 314.3057 0001388  71.6499 288.4644 15.08839847 32015,6917.880999999999,95.438,540.706,538.786,0.0
50834.0,STARLINK-3331,PAYLOAD,2022-08-04 21:21:20,15.08826206,0.0001403,53.2171,312.5216,69.0494,291.0648,0.00021559,3.144e-05,0.0,0 STARLINK-3331,1 50834U 22001AH  22216.88981817  .00003144  00000-0  21559-3 0  9995,2 50834  53.2171 312.5216 0001403  69.0494 291.0648 15.08826206 33353,6917.9230000000025,95.438,540.758,538.817,0.0
50834.0,STARLINK-3331,PAYLOAD,2022-08-05 11:39:47,15.0884296,0.0001385999999999,53.2169,309.8453,74.2627,285.8517,8.8159e-05,1.116e-05,0.0,0 STARLINK-3331,1 50834U 22001AH  22217.48597031  .00001116  00000-0  88159-4 0  9990,2 50834  53.2169 309.8453 0001386  74.2627 285.8517 15.08842960 33449,6917.871,95.437,540.695,538.778,0.0
50834.0,STARLINK-3331,PAYLOAD,2022-08-05 14:50:33,15.08845785,0.0001385999999999,53.217,309.2506,69.8888,290.2253,7.8885e-05,9.68e-06,0.0,0 STARLINK-3331,1 50834U 22001AH  22217.61844869  .00000968  00000-0  78885-4 0  9998,2 50834  53.2170 309.2506 0001386  69.8888 290.2253 15.08845785 32188,6917.863,95.437,540.687,538.769,0.0
50834.0,STARLINK-3331,PAYLOAD,2022-08-06 05:09:03,15.08835796,0.0001298,53.2169,306.5743,68.1964,291.9166,-3.5145e-05,-8.47e-06,0.0,0 STARLINK-3331,1 50834U 22001AH  22218.21461890 -.00000847  00000-0 -35145-4 0  9994,2 50834  53.2169 306.5743 0001298  68.1964 291.9166 15.08835796 33552,6917.893,95.438,540.656,538.86,0.0
50834.0,STARLINK-3331,PAYLOAD,2022-08-06 13:05:58,15.08839319,0.0001327,53.2168,305.0876,66.40100000000001,293.7122,-1.8179e-05,-5.77e-06,0.0,0 STARLINK-3331,1 50834U 22001AH  22218.54581717 -.00000577  00000-0 -18179-4 0  9999,2 50834  53.2168 305.0876 0001327  66.4010 293.7122 15.08839319 32329,6917.882,95.438,540.665,538.8290000000002,0.0
50834.0,STARLINK-3331,PAYLOAD,2022-08-06 14:41:21,15.0883367,0.0001347,53.2169,304.7902,69.0445,291.0691,8.242899999999999e-05,1.024e-05,0.0,0 STARLINK-3331,1 50834U 22001AH  22218.61205965  .00001024  00000-0  82429-4 0  9990,2 50834  53.2169 304.7902 0001347  69.0445 291.0691 15.08833670 32336,6917.9,95.438,540.697,538.8330000000002,0.0
